GALAXY 14               
1 28790C 05030A   21004.00000000  .00000127  00000-0  00000-0 0    48
2 28790   0.0104  15.8552 0002600 272.7719  50.1950  1.00270366    18
GALAXY 14               
1 28790C 05030A   21007.00000000  .00000127  00000-0  00000-0 0    74
2 28790   0.0152  30.1741 0002257 262.2203  49.3779  1.00271528    11
GALAXY 15               
1 28884C 05041A   21004.00000000  .00000168  00000-0  00000-0 0    49
2 28884   0.0363 253.1732 0001917  36.1219  41.5261  1.00270052    14
GALAXY 15           [PM]
1 28884C 05041A   21006.45398148  .00000169  00000-0  00000-0 0    66
2 28884   0.0480 274.5231 0001562  17.1148 205.0359  1.00269610    14
GALAXY 15               
1 28884C 05041A   21007.00000000  .00000169  00000-0  00000-0 0    76
2 28884   0.0464 275.8747 0001486  15.5383  42.3620  1.00269750    18
GALAXY 15           [PM]
1 28884C 05041A   21007.54289352  .00000169  00000-0  00000-0 0    74
2 28884   0.0448 277.3475 0001462  15.4590 236.9412  1.00270353    19
GALAXY 16               
1 29236C 06023A   21004.00000000 -.00000026  00000-0  00000-0 0    46
2 29236   0.0071 327.2707 0002868 331.9540  65.6019  1.00270495    15
GALAXY 16           [PM]
1 29236C 06023A   21006.54233796 -.00000031  00000-0  00000-0 0    65
2 29236   0.0066 335.6277 0002480 300.0748 286.8732  1.00270601    19
GALAXY 16               
1 29236C 06023A   21007.00000000 -.00000046  00000-0  00000-0 0    74
2 29236   0.0371 205.3192 0002458  85.4336  77.0300  1.00270341    11
GALAXY 17               
1 31307C 07016B   21004.00000000 -.00000093  00000-0  00000-0 0    45
2 31307   0.0083 350.9953 0003325 307.6946  74.1357  1.00268718    10
GALAXY 17           [PM]
1 31307C 07016B   21005.11031250 -.00000082  00000-0  00000-0 0    58
2 31307   0.0078   4.0850 0003319 294.3172 115.2137  1.00271914    18
GALAXY 17               
1 31307C 07016B   21007.00000000 -.00000084  00000-0  00000-0 0    71
2 31307   0.0094  19.9256 0003127 281.7017  74.1406  1.00271817    10
INTELSAT 11             
1 32253C 07044B   21004.00000000 -.00000182  00000-0  00000-0 0    46
2 32253   0.0276 280.1143 0002386  37.1327 103.5913  1.00270029    17
INTELSAT 11         [PM]
1 32253C 07044B   21005.84896991 -.00000178  00000-0  00000-0 0    57
2 32253   0.0172 305.7609 0002156  14.9283  47.5935  1.00271860    17
INTELSAT 11             
1 32253C 07044B   21007.00000000 -.00000178  00000-0  00000-0 0    77
2 32253   0.0100 327.5671 0002113 356.4492  99.7716  1.00271889    15
INTELSAT 11         [PM]
1 32253C 07044B   21007.28222222 -.00000178  00000-0  00000-0 0    79
2 32253   0.0088 334.3788 0002092 350.2967 200.9899  1.00271999    10
HORIZONS 2              
1 32388C 07063B   21004.00000000 -.00003249  00000-0  00000-0 0    43
2 32388   0.0239 299.8487 0002864 349.2341 259.5971  1.00270531    11
HORIZONS 2          [PM]
1 32388C 07063B   21006.62553241 -.00000092  00000-0  00000-0 0    68
2 32388   0.0139 327.1887 0002607 323.6987 125.5552  1.00271522    14
HORIZONS 2              
1 32388C 07063B   21007.00000000 -.00000089  00000-0  00000-0 0    78
2 32388   0.0123 334.4382 0002553 317.2970 259.8841  1.00271682    18
GALAXY 18               
1 32951C 08024A   21004.00000000  .00000112  00000-0  00000-0 0    42
2 32951   0.0310 265.9267 0002983  22.2427  52.6559  1.00270997    12
GALAXY 18           [PM]
1 32951C 08024A   21006.67708333 -.00003976  00000-0  00000-0 0    65
2 32951   0.0136 312.2802 0002742 336.9463 297.9888  1.00269207    18
GALAXY 18               
1 32951C 08024A   21007.00000000  .00000115  00000-0  00000-0 0    71
2 32951   0.0115 320.8201 0002730 327.9954  54.9652  1.00269111    19
INTELSAT 25             
1 33153C 08034A   21004.00000000 -.00000135  00000-0  00000-0 0    44
2 33153   0.0256 138.4646 0003120 148.5561 145.2903  1.00269322    18
INTELSAT 25             
1 33153C 08034A   21007.00000000 -.00000126  00000-0  00000-0 0    70
2 33153   0.0333 236.6344 0002779  55.0663 143.5609  1.00273610    13
INTELSAT 25         [PM]
1 33153C 08034A   21007.28091435 -.00000155  00000-0  00000-0 0    74
2 33153   0.0318 242.0774 0002693  43.8137 250.7786  1.00272211    13
GALAXY 19               
1 33376C 08045A   21004.00000000 -.00000046  00000-0  00000-0 0    44
2 33376   0.0001  50.9939 0003141 244.4174  71.4080  1.00269722    15
GALAXY 19           [PM]
1 33376C 08045A   21006.02986111 -.00000045  00000-0  00000-0 0    65
2 33376   0.0009  51.3103 0002928 247.0573  81.1976  1.00270838    17
GALAXY 19               
1 33376C 08045A   21007.00000000 -.00000045  00000-0  00000-0 0    79
2 33376   0.0045  56.5603 0002837 243.2769  69.9312  1.00270901    12
GALAXY 19           [PM]
1 33376C 08045A   21007.59027778 -.00000044  00000-0  00000-0 0    73
2 33376   0.0073  61.6526 0002782 239.5685 281.6273  1.00271211    12
INTELSAT 14             
1 36097C 09064A   21004.00000000 -.00000185  00000-0  00000-0 0    43
2 36097   0.0169  93.4180 0002882 203.8830 121.5277  1.00269858    17
INTELSAT 14             
1 36097C 09064A   21007.00000000 -.00000183  00000-0  00000-0 0    77
2 36097   0.0172 301.8105 0002211 356.4962 123.4603  1.00275605    12
INTELSAT 14         [PM]
1 36097C 09064A   21007.31192130 -.00000183  00000-0  00000-0 0    77
2 36097   0.0191 298.4491 0002046 347.4288 248.4925  1.00272676    19
INTELSAT 15             
1 36106C 09067A   21004.00000000  .00000050  00000-0  00000-0 0    47
2 36106   0.0021  10.6157 0002412 284.1255 254.2347  1.00270608    19
INTELSAT 15             
1 36106C 09067A   21007.00000000 -.00000144  00000-0  00000-0 0    78
2 36106   0.0064  33.1700 0002039 266.2682 252.4793  1.00270208    11
INTELSAT 15         [PM]
1 36106C 09067A   21007.55142361 -.00000095  00000-0  00000-0 0    70
2 36106   0.0079  38.3086 0002015 257.8792  94.7822  1.00271694    13
INTELSAT 16             
1 36397C 10006A   21004.00000000 -.00000175  00000-0  00000-0 0    43
2 36397   0.0000  14.0335 0002270 275.9941  97.6025  1.00269717    17
INTELSAT 16             
1 36397C 10006A   21007.00000000 -.00000196  00000-0  00000-0 0    72
2 36397   0.0048  39.7259 0001826 249.8636 100.9873  1.00272285    18
INTELSAT 16         [PM]
1 36397C 10006A   21014.19407407 -.00000146  00000-0  00000-0 0   145
2 36397   0.0050 354.8365 0001560 308.1604 164.5268  1.00268827    10
INTELSAT 17         [PM]
1 37238C 10065B   20366.85611111  .00000088  00000-0  00000-0 0  3660
2 37238   0.0516 211.1971 0003318  77.7678 185.9590  1.00270698    17
INTELSAT 17             
1 37238C 10065B   21004.00000000  .00000086  00000-0  00000-0 0    43
2 37238   0.0424 220.3637 0003100  76.8921 232.5584  1.00270525    17
INTELSAT 17             
1 37238C 10065B   21007.00000000  .00000087  00000-0  00000-0 0    70
2 37238   0.0307 244.7420 0002745  57.2125 230.8069  1.00271347    12
INTELSAT NEW DAWN       
1 37392C 11016A   21004.00000000  .00000228  00000-0  00000-0 0    49
2 37392   0.0136 264.6280 0000873 353.0211 238.9552  1.00270286    18
INTELSAT NEW DAWN       
1 37392C 11016A   21007.00000000  .00000221  00000-0  00000-0 0    78
2 37392   0.0203 248.5171 0000412 352.3138 258.7272  1.00272410    12
INTELSAT NEW DAWN   [PM]
1 37392C 11016A   21011.89255787  .00000257  00000-0  00000-0 0   118
2 37392   0.0427 251.5411 0000813 275.2457 298.8995  1.00271089    11
INTELSAT 18             
1 37834C 11056A   21004.00000000  .00000143  00000-0  00000-0 0    40
2 37834   0.0070 335.7562 0001962 333.3945 334.6752  1.00270453    16
INTELSAT 18             
1 37834C 11056A   21007.00000000  .00000141  00000-0  00000-0 0    74
2 37834   0.0026   8.5054 0001655 312.2947 325.9626  1.00270546    11
INTELSAT 18         [PM]
1 37834C 11056A   21009.29731482  .00000086  00000-0  00000-0 0    92
2 37834   0.0062  20.8441 0001526 259.5429 115.6543  1.00271858    12
INTELSAT 22             
1 38098C 12011A   21004.00000000 -.00003042  00000-0  00000-0 0    47
2 38098   0.0326 267.1197 0003091  13.8011 255.0011  1.00269034    11
INTELSAT 22         [PM]
1 38098C 12011A   21006.08707176 -.00003541  00000-0  00000-0 0    61
2 38098   0.0204 295.6190 0002716 349.7014 283.9882  1.00271694    13
INTELSAT 22             
1 38098C 12011A   21007.00000000  .00000024  00000-0  00000-0 0    79
2 38098   0.0137 316.2386 0002632 329.1049 253.5183  1.00271947    10
INTELSAT 19             
1 38356C 12030A   21004.00000000  .00000033  00000-0  00000-0 0    41
2 38356   0.0001  30.6832 0003120 265.6823 333.4592  1.00270680    12
INTELSAT 19             
1 38356C 12030A   21007.00000000  .00000035  00000-0  00000-0 0    79
2 38356   0.0056  56.1763 0002780 244.5472 332.0513  1.00271211    14
INTELSAT 19         [PM]
1 38356C 12030A   21010.00719907  .00000033  00000-0  00000-0 0   108
2 38356   0.0281 293.0652 0002611 358.0629 347.1907  1.00270958    12
INTELSAT 20             
1 38740C 12043A   20366.00000000 -.00003346  00000-0  00000-0 0  3664
2 38740   0.0170  99.4132 0002540  96.9736 332.0000  1.00270852    15
INTELSAT 20             
1 38740C 12043A   21004.00000000  .00000062  00000-0  00000-0 0    44
2 38740   0.0197 131.1413 0002340  58.7577 342.4262  1.00269759    16
INTELSAT 20             
1 38740C 12043A   21007.00000000 -.00002763  00000-0  00000-0 0    71
2 38740   0.0118 101.9044 0002335  78.7372 354.6321  1.00270325    15
INTELSAT 20         [PM]
1 38740C 12043A   21007.49652778 -.00002767  00000-0  00000-0 0    73
2 38740   0.0104  95.1217 0002141  84.0652 175.3200  1.00271436    10
INTELSAT 21             
1 38749C 12045A   21004.00000000 -.00000196  00000-0  00000-0 0    44
2 38749   0.0174  90.9749 0002194 197.6945 117.1651  1.00269881    18
INTELSAT 21             
1 38749C 12045A   21007.00000000 -.00000195  00000-0  00000-0 0    79
2 38749   0.0180 303.7155 0001777 345.9022 119.1515  1.00269641    16
